{
  "type": "FeatureCollection",
  "features": [
    {
      "type": "Feature",
      "properties": {
        "OBJECTID": 1,
        "PARCELID": "568",
        "INTID": 568,
        "APN": "23712199",
        "LOTNUM": "7",
        "PARCELTYPE": "Tax",
        "FEATURECLASS": "Parcel",
        "PLANCRT": "MGE",
        "PLANMOD": null,
        "LASTUPDATE": "2005-10-25T12:21:45Z",
        "NOTES": null,
        "COVERED": null,
        "SHAPE_Length": 694.8246595277515,
        "SHAPE_Area": 30293.181865782142,
        "CREATIONDATE": "1900-01-01T00:00:00Z"
      },
      "geometry": {
        "type": "Polygon",
        "coordinates": [
          [
            [
              -121.90918990078974,
              37.37197601768446
            ],
            [
              -121.90951873035662,
              37.37212256095593
            ],
            [
              -121.90952919444882,
              37.37212628046593
            ],
            [
              -121.90958033436836,
              37.37214084251035
            ],
            [
              -121.90963260260492,
              37.37215060857175
            ],
            [
              -121.90968555040241,
              37.372155494802286
            ],
            [
              -121.90994835362717,
              37.37214255629662
            ],
            [
              -121.90995863390468,
              37.372143631903434
            ],
            [
              -121.90996895411246,
              37.372143053675835
            ],
            [
              -121.90997904989551,
              37.372140836425295
            ],
            [
              -121.90998866264759,
              37.372137036947294
            ],
            [
              -121.90999754613539,
              37.3721317525665
            ],
            [
              -121.91000547280589,
              37.37212511864381
            ],
            [
              -121.91001223961526,
              37.37211730510897
            ],
            [
              -121.91001767322979,
              37.37210851210785
            ],
            [
              -121.91002163446595,
              37.3720989648756
            ],
            [
              -121.91002402185556,
              37.3720889079672
            ],
            [
              -121.90999238093457,
              37.3718075234385
            ],
            [
              -121.90998502302826,
              37.371795217857134
            ],
            [
              -121.90997581875811,
              37.371784224789806
            ],
            [
              -121.90996499789954,
              37.37177481866744
            ],
            [
              -121.90995283058446,
              37.371767234304464
            ],
            [
              -121.9099396205577,
              37.37176166103692
            ],
            [
              -121.90992569759436,
              37.371758237995856
            ],
            [
              -121.90991140926731,
              37.37175705063406
            ],
            [
              -121.90989711227031,
              37.37175812859283
            ],
            [
              -121.90985552438543,
              37.37176296870526
            ],
            [
              -121.90980926647524,
              37.371766930379756
            ],
            [
              -121.90976286762553,
              37.37176530684476
            ],
            [
              -121.90971699975508,
              37.371758121611265
            ],
            [
              -121.90967232709336,
              37.37174547873128
            ],
            [
              -121.90962949656156,
              37.37172756129098
            ],
            [
              -121.90943337572143,
              37.371641060657446
            ],
            [
              -121.90918990078974,
              37.37197601768446
            ]
          ]
        ]
      }
    },
    {
      "type": "Feature",
      "properties": {
        "OBJECTID": 2,
        "PARCELID": "508",
        "INTID": 508,
        "APN": "23717101",
        "LOTNUM": "1",
        "PARCELTYPE": "Tax",
        "FEATURECLASS": "Parcel",
        "PLANCRT": "MGE",
        "PLANMOD": null,
        "LASTUPDATE": "2005-10-25T12:21:45Z",
        "NOTES": null,
        "COVERED": null,
        "SHAPE_Length": 1091.0964043316997,
        "SHAPE_Area": 67674.8645330468,
        "CREATIONDATE": "1900-01-01T00:00:00Z"
      },
      "geometry": {
        "type": "Polygon",
        "coordinates": [
          [
            [
              -121.9168186304984,
              37.37747664382604
            ],
            [
              -121.91696769856188,
              37.37755471573586
            ],
            [
              -121.91711942488455,
              37.37762748684044
            ],
            [
              -121.91739208667175,
              37.377746806495594
            ],
            [
              -121.91808964895293,
              37.377131962925105
            ],
            [
              -121.91781940975174,
              37.376768591401145
            ],
            [
              -121.9177145191249,
              37.37666622424826
            ],
            [
              -121.9168186304984,
              37.37747664382604
            ]
          ]
        ]
      }
    },
    {
      "type": "Feature",
      "properties": {
        "OBJECTID": 3,
        "PARCELID": "509",
        "INTID": 509,
        "APN": "23717188",
        "LOTNUM": "2",
        "PARCELTYPE": "Tax",
        "FEATURECLASS": "Parcel",
        "PLANCRT": "MGE",
        "PLANMOD": null,
        "LASTUPDATE": "2005-10-25T12:21:45Z",
        "NOTES": null,
        "COVERED": null,
        "SHAPE_Length": 1308.365727037863,
        "SHAPE_Area": 101464.92335691511,
        "CREATIONDATE": "1900-01-01T00:00:00Z"
      },
      "geometry": {
        "type": "Polygon",
        "coordinates": [
          [
            [
              -121.91622713665132,
              37.37696855054982
            ],
            [
              -121.91640038949872,
              37.37713302189126
            ],
            [
              -121.91649892838441,
              37.377226032034656
            ],
            [
              -121.9166016268042,
              37.377314427924496
            ],
            [
              -121.91670826889349,
              37.37739802375908
            ],
            [
              -121.9168186304984,
              37.37747664382604
            ],
            [
              -121.9177145191249,
              37.37666622424826
            ],
            [
              -121.91716415588249,
              37.37612909895048
            ],
            [
              -121.91698373811579,
              37.37629073006215
            ],
            [
              -121.91622713665132,
              37.37696855054982
            ]
          ]
        ]
      }
    },
    {
      "type": "Feature",
      "properties": {
        "OBJECTID": 6,
        "PARCELID": "11909",
        "INTID": 11909,
        "APN": "58705050",
        "LOTNUM": "75",
        "PARCELTYPE": "Tax",
        "FEATURECLASS": "Parcel",
        "PLANCRT": "T-3252",
        "PLANMOD": null,
        "LASTUPDATE": "2005-10-25T12:21:45Z",
        "NOTES": null,
        "COVERED": null,
        "SHAPE_Length": 339.4475052175729,
        "SHAPE_Area": 6570.365351663946,
        "CREATIONDATE": "1900-01-01T00:00:00Z"
      },
      "geometry": {
        "type": "Polygon",
        "coordinates": [
          [
            [
              -121.85176064311189,
              37.405518567980444
            ],
            [
              -121.85208072254,
              37.40535705049447
            ],
            [
              -121.85201280225789,
              37.4052722175158
            ],
            [
              -121.85196960850247,
              37.405218109416204
            ],
            [
              -121.85165068550639,
              37.40538071179627
            ],
            [
              -121.85176064311189,
              37.405518567980444
            ]
          ]
        ]
      }
    },
    {
      "type": "Feature",
      "properties": {
        "OBJECTID": 7,
        "PARCELID": "11910",
        "INTID": 11910,
        "APN": "58705051",
        "LOTNUM": "76",
        "PARCELTYPE": "Tax",
        "FEATURECLASS": "Parcel",
        "PLANCRT": "T-3252",
        "PLANMOD": null,
        "LASTUPDATE": "2005-10-25T12:21:45Z",
        "NOTES": null,
        "COVERED": null,
        "SHAPE_Length": 341.0249593834767,
        "SHAPE_Area": 6657.786235644959,
        "CREATIONDATE": "1900-01-01T00:00:00Z"
      },
      "geometry": {
        "type": "Polygon",
        "coordinates": [
          [
            [
              -121.85165068550639,
              37.40538071179627
            ],
            [
              -121.85196960850247,
              37.405218109416204
            ],
            [
              -121.85190538762728,
              37.40513793059839
            ],
            [
              -121.85185730144599,
              37.405077891520634
            ],
            [
              -121.85153834925691,
              37.40524079582663
            ],
            [
              -121.85154905801063,
              37.40525413130167
            ],
            [
              -121.85165068550639,
              37.40538071179627
            ]
          ]
        ]
      }
    },
    {
      "type": "Feature",
      "properties": {
        "OBJECTID": 8,
        "PARCELID": "11911",
        "INTID": 11911,
        "APN": "58705052",
        "LOTNUM": "77",
        "PARCELTYPE": "Tax",
        "FEATURECLASS": "Parcel",
        "PLANCRT": "T-3252",
        "PLANMOD": null,
        "LASTUPDATE": "2005-10-25T12:21:45Z",
        "NOTES": null,
        "COVERED": null,
        "SHAPE_Length": 345.5758426235829,
        "SHAPE_Area": 7074.953104338539,
        "CREATIONDATE": "1900-01-01T00:00:00Z"
      },
      "geometry": {
        "type": "Polygon",
        "coordinates": [
          [
            [
              -121.85143186059032,
              37.40508534844266
            ],
            [
              -121.85145182253403,
              37.405123379598976
            ],
            [
              -121.8514738801666,
              37.40516023484139
            ],
            [
              -121.85153049365266,
              37.40523099788261
            ],
            [
              -121.85153834925691,
              37.40524079582663
            ],
            [
              -121.85185730144599,
              37.405077891520634
            ],
            [
              -121.8517904383091,
              37.40499439166985
            ],
            [
              -121.85173563668124,
              37.404926684441456
            ],
            [
              -121.85143186059032,
              37.40508534844266
            ]
          ]
        ]
      }
    },
    {
      "type": "Feature",
      "properties": {
        "OBJECTID": 9,
        "PARCELID": "11912",
        "INTID": 11912,
        "APN": "58705053",
        "LOTNUM": "78",
        "PARCELTYPE": "Tax",
        "FEATURECLASS": "Parcel",
        "PLANCRT": "T-3252",
        "PLANMOD": null,
        "LASTUPDATE": "2005-10-25T12:21:45Z",
        "NOTES": null,
        "COVERED": null,
        "SHAPE_Length": 373.75734811265784,
        "SHAPE_Area": 7491.82646617531,
        "CREATIONDATE": "1900-01-01T00:00:00Z"
      },
      "geometry": {
        "type": "Polygon",
        "coordinates": [
          [
            [
              -121.85134348588012,
              37.405006079304904
            ],
            [
              -121.85137036862216,
              37.40501990089055
            ],
            [
              -121.85139451046682,
              37.40503809125572
            ],
            [
              -121.85141520863394,
              37.405060120870495
            ],
            [
              -121.85143186059032,
              37.40508534844266
            ],
            [
              -121.85173563668124,
              37.404926684441456
            ],
            [
              -121.85168020168261,
              37.40485824283
            ],
            [
              -121.8515706708527,
              37.404715382913515
            ],
            [
              -121.85155420262569,
              37.40469390060798
            ],
            [
              -121.85134348588012,
              37.405006079304904
            ]
          ]
        ]
      }
    },
    {
      "type": "Feature",
      "properties": {
        "OBJECTID": 10,
        "PARCELID": "511",
        "INTID": 511,
        "APN": "23711059",
        "LOTNUM": "6",
        "PARCELTYPE": "Tax",
        "FEATURECLASS": "Parcel",
        "PLANCRT": "MGE",
        "PLANMOD": null,
        "LASTUPDATE": "2005-10-25T12:21:45Z",
        "NOTES": null,
        "COVERED": null,
        "SHAPE_Length": 2419.0547642247157,
        "SHAPE_Area": 304942.4225581701,
        "CREATIONDATE": "1900-01-01T00:00:00Z"
      },
      "geometry": {
        "type": "Polygon",
        "coordinates": [
          [
            [
              -121.91647053612265,
              37.378195667328875
            ],
            [
              -121.91662383605723,
              37.378306076346504
            ],
            [
              -121.91703786223862,
              37.37793558691389
            ],
            [
              -121.91710008547517,
              37.37794972324431
            ],
            [
              -121.91774916364758,
              37.37737837472985
            ],
            [
              -121.91754834784096,
              37.37728338207148
            ],
            [
              -121.91734597959375,
              37.3771917431832
            ],
            [
              -121.91726662948027,
              37.37714827512492
            ],
            [
              -121.91718834099423,
              37.37710292288624
            ],
            [
              -121.9171608922656,
              37.37708570247671
            ],
            [
              -121.91705040371919,
              37.377005706762965
            ],
            [
              -121.91694349716845,
              37.376920983551784
            ],
            [
              -121.91684037473932,
              37.376831693027555
            ],
            [
              -121.91674123140322,
              37.376738004009994
            ],
            [
              -121.91656910085484,
              37.37657459037223
            ],
            [
              -121.91629543140115,
              37.376314782493544
            ],
            [
              -121.91556038498742,
              37.37680508649805
            ],
            [
              -121.91529275113398,
              37.37697622718732
            ],
            [
              -121.91473129738482,
              37.37733544204421
            ],
            [
              -121.91529221198367,
              37.37789398802595
            ],
            [
              -121.91567681276909,
              37.377639690837334
            ],
            [
              -121.91647053612265,
              37.378195667328875
            ]
          ]
        ]
      }
    },
    {
      "type": "Feature",
      "properties": {
        "OBJECTID": 11,
        "PARCELID": "518",
        "INTID": 518,
        "APN": "23711066",
        "LOTNUM": "3",
        "PARCELTYPE": "Tax",
        "FEATURECLASS": "Parcel",
        "PLANCRT": "MGE",
        "PLANMOD": null,
        "LASTUPDATE": "2005-10-25T12:21:45Z",
        "NOTES": null,
        "COVERED": null,
        "SHAPE_Length": 1401.4105982014476,
        "SHAPE_Area": 115576.2011053792,
        "CREATIONDATE": "1900-01-01T00:00:00Z"
      },
      "geometry": {
        "type": "Polygon",
        "coordinates": [
          [
            [
              -121.91764235422373,
              37.37879049575431
            ],
            [
              -121.91844372511076,
              37.37935260194181
            ],
            [
              -121.91860127801502,
              37.37921728457265
            ],
            [
              -121.91874148702361,
              37.3790822597329
            ],
            [
              -121.91895551434618,
              37.37908244478262
            ],
            [
              -121.91895393643563,
              37.37900665268045
            ],
            [
              -121.91894804570697,
              37.37865134540328
            ],
            [
              -121.91894906816826,
              37.378616365707444
            ],
            [
              -121.91894960485313,
              37.37857216387582
            ],
            [
              -121.91895080477491,
              37.37848390977729
            ],
            [
              -121.91894972684152,
              37.378395654104494
            ],
            [
              -121.91894512472054,
              37.3783490975086
            ],
            [
              -121.9189323167176,
              37.378289070341495
            ],
            [
              -121.9189153053003,
              37.378245189891366
            ],
            [
              -121.91889550390668,
              37.37819752582846
            ],
            [
              -121.91887140517629,
              37.37815018861816
            ],
            [
              -121.91883261385716,
              37.37809258141691
            ],
            [
              -121.9187897955386,
              37.37803790100294
            ],
            [
              -121.91874317022473,
              37.37798642832881
            ],
            [
              -121.91869297748032,
              37.37793842786544
            ],
            [
              -121.91863340794328,
              37.37788822325646
            ],
            [
              -121.91764235422373,
              37.37879049575431
            ]
          ]
        ]
      }
    },
    {
      "type": "Feature",
      "properties": {
        "OBJECTID": 12,
        "PARCELID": "519",
        "INTID": 519,
        "APN": "23711071",
        "LOTNUM": "2",
        "PARCELTYPE": "Tax",
        "FEATURECLASS": "Parcel",
        "PLANCRT": "MGE",
        "PLANMOD": null,
        "LASTUPDATE": "2005-10-25T12:21:45Z",
        "NOTES": null,
        "COVERED": null,
        "SHAPE_Length": 1532.5433801353786,
        "SHAPE_Area": 99701.38022078235,
        "CREATIONDATE": "1900-01-01T00:00:00Z"
      },
      "geometry": {
        "type": "Polygon",
        "coordinates": [
          [
            [
              -121.91708864806512,
              37.37922796532843
            ],
            [
              -121.91783417552197,
              37.379745813511676
            ],
            [
              -121.91878540361918,
              37.379574858454475
            ],
            [
              -121.91895330009496,
              37.37953835436651
            ],
            [
              -121.91894922106403,
              37.37945241535717
            ],
            [
              -121.91894807096475,
              37.379366387285636
            ],
            [
              -121.91895403034393,
              37.37932860107615
            ],
            [
              -121.9189547089686,
              37.37929186915571
            ],
            [
              -121.91895730409477,
              37.37923735723005
            ],
            [
              -121.91895773035792,
              37.37918278523158
            ],
            [
              -121.91895551434618,
              37.37908244478262
            ],
            [
              -121.91874148702361,
              37.3790822597329
            ],
            [
              -121.91860127801502,
              37.37921728457265
            ],
            [
              -121.91844372511076,
              37.37935260194181
            ],
            [
              -121.91764235422373,
              37.37879049575431
            ],
            [
              -121.91743934417255,
              37.3789753634913
            ],
            [
              -121.91739834346829,
              37.37894600142432
            ],
            [
              -121.91708864806512,
              37.37922796532843
            ]
          ]
        ]
      }
    },
    {
      "type": "Feature",
      "properties": {
        "OBJECTID": 13,
        "PARCELID": "11913",
        "INTID": 11913,
        "APN": "58705054",
        "LOTNUM": "79",
        "PARCELTYPE": "Tax",
        "FEATURECLASS": "Parcel",
        "PLANCRT": "T-3252",
        "PLANMOD": null,
        "LASTUPDATE": "2005-10-25T12:21:45Z",
        "NOTES": null,
        "COVERED": null,
        "SHAPE_Length": 417.5287015257654,
        "SHAPE_Area": 10327.764950488525,
        "CREATIONDATE": "1900-01-01T00:00:00Z"
      },
      "geometry": {
        "type": "Polygon",
        "coordinates": [
          [
            [
              -121.85121094065782,
              37.404986071067604
            ],
            [
              -121.85125599317315,
              37.40498572744698
            ],
            [
              -121.85130054228487,
              37.40499245231554
            ],
            [
              -121.85134348588012,
              37.405006079304904
            ],
            [
              -121.85155420262569,
              37.40469390060798
            ],
            [
              -121.85146121806952,
              37.40457493891613
            ],
            [
              -121.85131089529206,
              37.40463605546961
            ],
            [
              -121.85119246360509,
              37.40468427923622
            ],
            [
              -121.85121094065782,
              37.404986071067604
            ]
          ]
        ]
      }
    },
    {
      "type": "Feature",
      "properties": {
        "OBJECTID": 14,
        "PARCELID": "11914",
        "INTID": 11914,
        "APN": "58705055",
        "LOTNUM": "80",
        "PARCELTYPE": "Tax",
        "FEATURECLASS": "Parcel",
        "PLANCRT": "T-3252",
        "PLANMOD": null,
        "LASTUPDATE": "2005-10-25T12:21:45Z",
        "NOTES": null,
        "COVERED": null,
        "SHAPE_Length": 341.45848119621024,
        "SHAPE_Area": 6544.931217748716,
        "CREATIONDATE": "1900-01-01T00:00:00Z"
      },
      "geometry": {
        "type": "Polygon",
        "coordinates": [
          [
            [
              -121.85091765889072,
              37.40480184592685
            ],
            [
              -121.85107858957018,
              37.40503764155384
            ],
            [
              -121.85112049607919,
              37.40501510251764
            ],
            [
              -121.85116483247486,
              37.40499782687961
            ],
            [
              -121.85121094065782,
              37.404986071067604
            ],
            [
              -121.85119246360509,
              37.40468427923622
            ],
            [
              -121.85112690721976,
              37.40471099141439
            ],
            [
              -121.85112242930614,
              37.40471280025756
            ],
            [
              -121.85094239214317,
              37.404791095892925
            ],
            [
              -121.85091765889072,
              37.40480184592685
            ]
          ]
        ]
      }
    },
    {
      "type": "Feature",
      "properties": {
        "OBJECTID": 15,
        "PARCELID": "10698",
        "INTID": 10698,
        "APN": "58624001",
        "LOTNUM": "110",
        "PARCELTYPE": "Tax",
        "FEATURECLASS": "Parcel",
        "PLANCRT": "T-5054",
        "PLANMOD": null,
        "LASTUPDATE": "2005-10-25T12:21:45Z",
        "NOTES": null,
        "COVERED": null,
        "SHAPE_Length": 326.2295823373198,
        "SHAPE_Area": 6101.564748779522,
        "CREATIONDATE": "1900-01-01T00:00:00Z"
      },
      "geometry": {
        "type": "Polygon",
        "coordinates": [
          [
            [
              -121.86009249706836,
              37.40546895548938
            ],
            [
              -121.86015426928701,
              37.405400971020136
            ],
            [
              -121.86021087640158,
              37.4053386777785
            ],
            [
              -121.8599190640144,
              37.405168466418594
            ],
            [
              -121.8598026093338,
              37.40529663352774
            ],
            [
              -121.86009249706836,
              37.40546895548938
            ]
          ]
        ]
      }
    },
    {
      "type": "Feature",
      "properties": {
        "OBJECTID": 16,
        "PARCELID": "10699",
        "INTID": 10699,
        "APN": "58624002",
        "LOTNUM": "109",
        "PARCELTYPE": "Tax",
        "FEATURECLASS": "Parcel",
        "PLANCRT": "T-5054",
        "PLANMOD": null,
        "LASTUPDATE": "2005-10-25T12:21:45Z",
        "NOTES": null,
        "COVERED": null,
        "SHAPE_Length": 327.55115522320637,
        "SHAPE_Area": 6171.4254958146685,
        "CREATIONDATE": "1900-01-01T00:00:00Z"
      },
      "geometry": {
        "type": "Polygon",
        "coordinates": [
          [
            [
              -121.86021087640158,
              37.4053386777785
            ],
            [
              -121.86027183668102,
              37.40527152632241
            ],
            [
              -121.86032959015793,
              37.40520792926151
            ],
            [
              -121.86003777963295,
              37.40503774521155
            ],
            [
              -121.8599190640144,
              37.405168466418594
            ],
            [
              -121.86021087640158,
              37.4053386777785
            ]
          ]
        ]
      }
    },
    {
      "type": "Feature",
      "properties": {
        "OBJECTID": 17,
        "PARCELID": "10700",
        "INTID": 10700,
        "APN": "58624003",
        "LOTNUM": "108",
        "PARCELTYPE": "Tax",
        "FEATURECLASS": "Parcel",
        "PLANCRT": "T-5054",
        "PLANMOD": null,
        "LASTUPDATE": "2005-10-25T12:21:45Z",
        "NOTES": null,
        "COVERED": null,
        "SHAPE_Length": 327.8112359205257,
        "SHAPE_Area": 6173.752983066248,
        "CREATIONDATE": "1900-01-01T00:00:00Z"
      },
      "geometry": {
        "type": "Polygon",
        "coordinates": [
          [
            [
              -121.86032959015793,
              37.40520792926151
            ],
            [
              -121.86039166539358,
              37.4051396113214
            ],
            [
              -121.86044873487387,
              37.40507816419667
            ],
            [
              -121.86015686506418,
              37.40490663569484
            ],
            [
              -121.86003777963295,
              37.40503774521155
            ],
            [
              -121.86032959015793,
              37.40520792926151
            ]
          ]
        ]
      }
    },
    {
      "type": "Feature",
      "properties": {
        "OBJECTID": 18,
        "PARCELID": "10701",
        "INTID": 10701,
        "APN": "58624004",
        "LOTNUM": "107",
        "PARCELTYPE": "Tax",
        "FEATURECLASS": "Parcel",
        "PLANCRT": "T-5054",
        "PLANMOD": null,
        "LASTUPDATE": "2005-10-25T12:21:45Z",
        "NOTES": null,
        "COVERED": null,
        "SHAPE_Length": 326.65820579596607,
        "SHAPE_Area": 6113.6232535882855,
        "CREATIONDATE": "1900-01-01T00:00:00Z"
      },
      "geometry": {
        "type": "Polygon",
        "coordinates": [
          [
            [
              -121.86044873487387,
              37.40507816419667
            ],
            [
              -121.86051361960011,
              37.4050053366258
            ],
            [
              -121.8605660740581,
              37.404947596283066
            ],
            [
              -121.86027379126179,
              37.404777940074155
            ],
            [
              -121.86015686506418,
              37.40490663569484
            ],
            [
              -121.86044873487387,
              37.40507816419667
            ]
          ]
        ]
      }
    },
    {
      "type": "Feature",
      "properties": {
        "OBJECTID": 19,
        "PARCELID": "269",
        "INTID": 269,
        "APN": "23707070",
        "LOTNUM": null,
        "PARCELTYPE": "Tax",
        "FEATURECLASS": "Parcel",
        "PLANCRT": "MGE",
        "PLANMOD": null,
        "LASTUPDATE": "2005-10-25T12:21:45Z",
        "NOTES": null,
        "COVERED": null,
        "SHAPE_Length": 680.3545975632774,
        "SHAPE_Area": 27776.62745771145,
        "CREATIONDATE": "1900-01-01T00:00:00Z"
      },
      "geometry": {
        "type": "Polygon",
        "coordinates": [
          [
            [
              -121.89342388144954,
              37.36402278893778
            ],
            [
              -121.89367176858288,
              37.364346103967875
            ],
            [
              -121.89373794463488,
              37.36431469102255
            ],
            [
              -121.89432946044656,
              37.36403394158409
            ],
            [
              -121.8941899877282,
              37.36384788555682
            ],
            [
              -121.89418188542976,
              37.36383957174944
            ],
            [
              -121.89417258965153,
              37.363832617963375
            ],
            [
              -121.89416232622735,
              37.36382719313554
            ],
            [
              -121.89415134449919,
              37.36382342905796
            ],
            [
              -121.89413991125974,
              37.363821417176005
            ],
            [
              -121.89412830427078,
              37.363821206366815
            ],
            [
              -121.89411132814413,
              37.36382253469642
            ],
            [
              -121.89404367005932,
              37.363829739320096
            ],
            [
              -121.89395060279594,
              37.363843700198366
            ],
            [
              -121.89386739194467,
              37.363860263551395
            ],
            [
              -121.89377949527382,
              37.36388207419356
            ],
            [
              -121.89372476675035,
              37.363898051914056
            ],
            [
              -121.89364586882529,
              37.36392442534359
            ],
            [
              -121.89358262173911,
              37.36394863461626
            ],
            [
              -121.8935364140507,
              37.36396939981235
            ],
            [
              -121.89350646496612,
              37.36398359956708
            ],
            [
              -121.89342388144954,
              37.36402278893778
            ]
          ]
        ]
      }
    },
    {
      "type": "Feature",
      "properties": {
        "OBJECTID": 20,
        "PARCELID": "270",
        "INTID": 270,
        "APN": "23707063",
        "LOTNUM": "B",
        "PARCELTYPE": "Tax",
        "FEATURECLASS": "Parcel",
        "PLANCRT": "MGE",
        "PLANMOD": null,
        "LASTUPDATE": "2005-10-25T12:21:45Z",
        "NOTES": null,
        "COVERED": null,
        "SHAPE_Length": 912.0159830855589,
        "SHAPE_Area": 44371.95932363332,
        "CREATIONDATE": "1900-01-01T00:00:00Z"
      },
      "geometry": {
        "type": "Polygon",
        "coordinates": [
          [
            [
              -121.89342388144954,
              37.36402278893778
            ],
            [
              -121.89253375202352,
              37.364445270891565
            ],
            [
              -121.8925261715415,
              37.364448615554906
            ],
            [
              -121.89251925918286,
              37.36445318390019
            ],
            [
              -121.8925132106658,
              37.36445884657817
            ],
            [
              -121.89250819724948,
              37.36446544325441
            ],
            [
              -121.892504360885,
              37.36447278714903
            ],
            [
              -121.89250181019612,
              37.36448067032522
            ],
            [
              -121.89250061740364,
              37.36448886957681
            ],
            [
              -121.8925008162806,
              37.36449715274822
            ],
            [
              -121.89250240119593,
              37.364505285307715
            ],
            [
              -121.89250532727397,
              37.36451303698805
            ],
            [
              -121.89250951166501,
              37.36452018830626
            ],
            [
              -121.8925207931154,
              37.364534666785
            ],
            [
              -121.89271467634701,
              37.364800366371895
            ],
            [
              -121.89367176858288,
              37.364346103967875
            ],
            [
              -121.89342388144954,
              37.36402278893778
            ]
          ]
        ]
      }
    },
    {
      "type": "Feature",
      "properties": {
        "OBJECTID": 21,
        "PARCELID": "271",
        "INTID": 271,
        "APN": "23707066",
        "LOTNUM": null,
        "PARCELTYPE": "Tax",
        "FEATURECLASS": "Parcel",
        "PLANCRT": "MGE",
        "PLANMOD": null,
        "LASTUPDATE": "2005-10-25T12:21:45Z",
        "NOTES": null,
        "COVERED": null,
        "SHAPE_Length": 820.6252888696205,
        "SHAPE_Area": 37194.78948056401,
        "CREATIONDATE": "1900-01-01T00:00:00Z"
      },
      "geometry": {
        "type": "Polygon",
        "coordinates": [
          [
            [
              -121.89319397647112,
              37.36545485910504
            ],
            [
              -121.89400736399757,
              37.365068799871466
            ],
            [
              -121.89377311174002,
              37.364747960249595
            ],
            [
              -121.89295921523953,
              37.36513427085955
            ],
            [
              -121.89319397647112,
              37.36545485910504
            ]
          ]
        ]
      }
    },
    {
      "type": "Feature",
      "properties": {
        "OBJECTID": 22,
        "PARCELID": "273",
        "INTID": 273,
        "APN": "23707075",
        "LOTNUM": null,
        "PARCELTYPE": "Tax",
        "FEATURECLASS": "Parcel",
        "PLANCRT": "MGE",
        "PLANMOD": null,
        "LASTUPDATE": "2005-10-25T12:21:45Z",
        "NOTES": "Street name match + Distance.",
        "COVERED": null,
        "SHAPE_Length": 965.4616389286709,
        "SHAPE_Area": 57080.72411480189,
        "CREATIONDATE": "1900-01-01T00:00:00Z"
      },
      "geometry": {
        "type": "Polygon",
        "coordinates": [
          [
            [
              -121.89355399509645,
              37.36594645473716
            ],
            [
              -121.89436937878091,
              37.36556020530421
            ],
            [
              -121.89416556817142,
              37.36528484782234
            ],
            [
              -121.89400736399757,
              37.365068799871466
            ],
            [
              -121.89319397647112,
              37.36545485910504
            ],
            [
              -121.89355399509645,
              37.36594645473716
            ]
          ]
        ]
      }
    },
    {
      "type": "Feature",
      "properties": {
        "OBJECTID": 23,
        "PARCELID": "274",
        "INTID": 274,
        "APN": "23707039",
        "LOTNUM": null,
        "PARCELTYPE": "Tax",
        "FEATURECLASS": "Parcel",
        "PLANCRT": "MGE",
        "PLANMOD": null,
        "LASTUPDATE": "2005-10-25T12:21:45Z",
        "NOTES": null,
        "COVERED": null,
        "SHAPE_Length": 689.4730254915004,
        "SHAPE_Area": 19133.48664308893,
        "CREATIONDATE": "1900-01-01T00:00:00Z"
      },
      "geometry": {
        "type": "Polygon",
        "coordinates": [
          [
            [
              -121.89367603837177,
              37.3661130795123
            ],
            [
              -121.89431388386987,
              37.365808020261554
            ],
            [
              -121.89448529215942,
              37.365728385483784
            ],
            [
              -121.89444958035727,
              37.365680988731164
            ],
            [
              -121.89438001125238,
              37.36557672436796
            ],
            [
              -121.89436937878091,
              37.36556020530421
            ],
            [
              -121.89355399509645,
              37.36594645473716
            ],
            [
              -121.89367603837177,
              37.3661130795123
            ]
          ]
        ]
      }
    },
    {
      "type": "Feature",
      "properties": {
        "OBJECTID": 24,
        "PARCELID": "275",
        "INTID": 275,
        "APN": "23707019",
        "LOTNUM": null,
        "PARCELTYPE": "Tax",
        "FEATURECLASS": "Parcel",
        "PLANCRT": "MGE",
        "PLANMOD": null,
        "LASTUPDATE": "2005-10-25T12:21:45Z",
        "NOTES": null,
        "COVERED": null,
        "SHAPE_Length": 284.5183425576045,
        "SHAPE_Area": 4761.894095721579,
        "CREATIONDATE": "1900-01-01T00:00:00Z"
      },
      "geometry": {
        "type": "Polygon",
        "coordinates": [
          [
            [
              -121.89294362954595,
              37.36602759671554
            ],
            [
              -121.89320149829767,
              37.36590054344517
            ],
            [
              -121.89310872941218,
              37.365773865269055
            ],
            [
              -121.89284742981813,
              37.36589953074359
            ],
            [
              -121.89294362954595,
              37.36602759671554
            ]
          ]
        ]
      }
    },
    {
      "type": "Feature",
      "properties": {
        "OBJECTID": 25,
        "PARCELID": "276",
        "INTID": 276,
        "APN": "23707020",
        "LOTNUM": null,
        "PARCELTYPE": "Tax",
        "FEATURECLASS": "Parcel",
        "PLANCRT": "MGE",
        "PLANMOD": null,
        "LASTUPDATE": "2005-10-25T12:21:45Z",
        "NOTES": null,
        "COVERED": null,
        "SHAPE_Length": 873.9750543626994,
        "SHAPE_Area": 40909.3268223811,
        "CREATIONDATE": "1900-01-01T00:00:00Z"
      },
      "geometry": {
        "type": "Polygon",
        "coordinates": [
          [
            [
              -121.89255694442636,
              37.36664537873537
            ],
            [
              -121.89344028692969,
              37.366226575999896
            ],
            [
              -121.89320149829767,
              37.36590054344517
            ],
            [
              -121.89294362954595,
              37.36602759671554
            ],
            [
              -121.8923115396663,
              37.36632612498924
            ],
            [
              -121.89255694442636,
              37.36664537873537
            ]
          ]
        ]
      }
    },
    {
      "type": "Feature",
      "properties": {
        "APN": "99999000",
        "PARCELID": "99999001",
        "LASTUPDATE": "2026-08-14T00:00:00Z",
        "PLANMOD": null,
        "NOTES": "synthetic Phase B test fixture: new parcel",
        "OBJECTID": "99999001",
        "INTID": "99999001",
        "FEATURECLASS": "Parcel",
        "PARCELTYPE": "Tax",
        "COVERED": null,
        "CREATIONDATE": "2026-08-14T00:00:00Z",
        "LOTNUM": null,
        "PLANCRT": null,
        "SHAPE_Area": 100.0,
        "SHAPE_Length": 40.0
      },
      "geometry": {
        "type": "Polygon",
        "coordinates": [
          [
            [
              -121.84342388144954,
              37.41402278893778
            ],
            [
              -121.84367176858288,
              37.41434610396787
            ],
            [
              -121.84373794463488,
              37.41431469102255
            ],
            [
              -121.84432946044656,
              37.41403394158409
            ],
            [
              -121.8441899877282,
              37.41384788555682
            ],
            [
              -121.84418188542976,
              37.413839571749435
            ],
            [
              -121.84417258965154,
              37.41383261796337
            ],
            [
              -121.84416232622735,
              37.41382719313554
            ],
            [
              -121.8441513444992,
              37.413823429057956
            ],
            [
              -121.84413991125975,
              37.413821417176
            ],
            [
              -121.84412830427078,
              37.41382120636681
            ],
            [
              -121.84411132814414,
              37.413822534696415
            ],
            [
              -121.84404367005932,
              37.41382973932009
            ],
            [
              -121.84395060279594,
              37.41384370019836
            ],
            [
              -121.84386739194467,
              37.41386026355139
            ],
            [
              -121.84377949527382,
              37.41388207419356
            ],
            [
              -121.84372476675036,
              37.41389805191405
            ],
            [
              -121.84364586882529,
              37.41392442534359
            ],
            [
              -121.84358262173912,
              37.413948634616254
            ],
            [
              -121.8435364140507,
              37.413969399812345
            ],
            [
              -121.84350646496613,
              37.413983599567075
            ],
            [
              -121.84342388144954,
              37.41402278893778
            ]
          ]
        ]
      }
    },
    {
      "type": "Feature",
      "properties": {
        "APN": "99999001",
        "PARCELID": "99999002",
        "LASTUPDATE": "2026-08-14T00:00:00Z",
        "PLANMOD": null,
        "NOTES": "synthetic Phase B test fixture: new parcel",
        "OBJECTID": "99999002",
        "INTID": "99999002",
        "FEATURECLASS": "Parcel",
        "PARCELTYPE": "Tax",
        "COVERED": null,
        "CREATIONDATE": "2026-08-14T00:00:00Z",
        "LOTNUM": null,
        "PLANCRT": null,
        "SHAPE_Area": 100.0,
        "SHAPE_Length": 40.0
      },
      "geometry": {
        "type": "Polygon",
        "coordinates": [
          [
            [
              -121.79342388144954,
              37.46402278893778
            ],
            [
              -121.79367176858288,
              37.46434610396788
            ],
            [
              -121.79373794463488,
              37.46431469102255
            ],
            [
              -121.79432946044656,
              37.46403394158409
            ],
            [
              -121.7941899877282,
              37.463847885556824
            ],
            [
              -121.79418188542977,
              37.46383957174944
            ],
            [
              -121.79417258965154,
              37.46383261796338
            ],
            [
              -121.79416232622735,
              37.46382719313554
            ],
            [
              -121.7941513444992,
              37.46382342905796
            ],
            [
              -121.79413991125975,
              37.46382141717601
            ],
            [
              -121.79412830427079,
              37.463821206366816
            ],
            [
              -121.79411132814414,
              37.46382253469642
            ],
            [
              -121.79404367005932,
              37.4638297393201
            ],
            [
              -121.79395060279595,
              37.46384370019837
            ],
            [
              -121.79386739194467,
              37.463860263551396
            ],
            [
              -121.79377949527382,
              37.46388207419356
            ],
            [
              -121.79372476675036,
              37.46389805191406
            ],
            [
              -121.7936458688253,
              37.46392442534359
            ],
            [
              -121.79358262173912,
              37.46394863461626
            ],
            [
              -121.7935364140507,
              37.46396939981235
            ],
            [
              -121.79350646496613,
              37.46398359956708
            ],
            [
              -121.79342388144954,
              37.46402278893778
            ]
          ]
        ]
      }
    },
    {
      "type": "Feature",
      "properties": {
        "OBJECTID": 9001,
        "PARCELID": "99999003",
        "INTID": 99999003,
        "APN": "99999003???",
        "LOTNUM": "7",
        "PARCELTYPE": "Tax",
        "FEATURECLASS": "Parcel",
        "PLANCRT": "MGE",
        "PLANMOD": null,
        "LASTUPDATE": "2005-10-25T12:21:45Z",
        "NOTES": null,
        "COVERED": null,
        "SHAPE_Length": 694.8246595277515,
        "SHAPE_Area": 30293.181865782142,
        "CREATIONDATE": "1900-01-01T00:00:00Z"
      },
      "geometry": {
        "type": "Polygon",
        "coordinates": [
          [
            [
              -121.90918990078974,
              37.37197601768446
            ],
            [
              -121.90951873035662,
              37.37212256095593
            ],
            [
              -121.90952919444882,
              37.37212628046593
            ],
            [
              -121.90958033436836,
              37.37214084251035
            ],
            [
              -121.90963260260492,
              37.37215060857175
            ],
            [
              -121.90968555040241,
              37.372155494802286
            ],
            [
              -121.90994835362717,
              37.37214255629662
            ],
            [
              -121.90995863390468,
              37.372143631903434
            ],
            [
              -121.90996895411246,
              37.372143053675835
            ],
            [
              -121.90997904989551,
              37.372140836425295
            ],
            [
              -121.90998866264759,
              37.372137036947294
            ],
            [
              -121.90999754613539,
              37.3721317525665
            ],
            [
              -121.91000547280589,
              37.37212511864381
            ],
            [
              -121.91001223961526,
              37.37211730510897
            ],
            [
              -121.91001767322979,
              37.37210851210785
            ],
            [
              -121.91002163446595,
              37.3720989648756
            ],
            [
              -121.91002402185556,
              37.3720889079672
            ],
            [
              -121.90999238093457,
              37.3718075234385
            ],
            [
              -121.90998502302826,
              37.371795217857134
            ],
            [
              -121.90997581875811,
              37.371784224789806
            ],
            [
              -121.90996499789954,
              37.37177481866744
            ],
            [
              -121.90995283058446,
              37.371767234304464
            ],
            [
              -121.9099396205577,
              37.37176166103692
            ],
            [
              -121.90992569759436,
              37.371758237995856
            ],
            [
              -121.90991140926731,
              37.37175705063406
            ],
            [
              -121.90989711227031,
              37.37175812859283
            ],
            [
              -121.90985552438543,
              37.37176296870526
            ],
            [
              -121.90980926647524,
              37.371766930379756
            ],
            [
              -121.90976286762553,
              37.37176530684476
            ],
            [
              -121.90971699975508,
              37.371758121611265
            ],
            [
              -121.90967232709336,
              37.37174547873128
            ],
            [
              -121.90962949656156,
              37.37172756129098
            ],
            [
              -121.90943337572143,
              37.371641060657446
            ],
            [
              -121.90918990078974,
              37.37197601768446
            ]
          ]
        ]
      }
    },
    {
      "type": "Feature",
      "properties": {
        "OBJECTID": 9002,
        "PARCELID": "99999004",
        "INTID": 99999004,
        "APN": null,
        "LOTNUM": "7",
        "PARCELTYPE": "Tax",
        "FEATURECLASS": "Parcel",
        "PLANCRT": "MGE",
        "PLANMOD": null,
        "LASTUPDATE": "2005-10-25T12:21:45Z",
        "NOTES": null,
        "COVERED": null,
        "SHAPE_Length": 694.8246595277515,
        "SHAPE_Area": 30293.181865782142,
        "CREATIONDATE": "1900-01-01T00:00:00Z"
      },
      "geometry": {
        "type": "Polygon",
        "coordinates": [
          [
            [
              -121.90918990078974,
              37.37197601768446
            ],
            [
              -121.90951873035662,
              37.37212256095593
            ],
            [
              -121.90952919444882,
              37.37212628046593
            ],
            [
              -121.90958033436836,
              37.37214084251035
            ],
            [
              -121.90963260260492,
              37.37215060857175
            ],
            [
              -121.90968555040241,
              37.372155494802286
            ],
            [
              -121.90994835362717,
              37.37214255629662
            ],
            [
              -121.90995863390468,
              37.372143631903434
            ],
            [
              -121.90996895411246,
              37.372143053675835
            ],
            [
              -121.90997904989551,
              37.372140836425295
            ],
            [
              -121.90998866264759,
              37.372137036947294
            ],
            [
              -121.90999754613539,
              37.3721317525665
            ],
            [
              -121.91000547280589,
              37.37212511864381
            ],
            [
              -121.91001223961526,
              37.37211730510897
            ],
            [
              -121.91001767322979,
              37.37210851210785
            ],
            [
              -121.91002163446595,
              37.3720989648756
            ],
            [
              -121.91002402185556,
              37.3720889079672
            ],
            [
              -121.90999238093457,
              37.3718075234385
            ],
            [
              -121.90998502302826,
              37.371795217857134
            ],
            [
              -121.90997581875811,
              37.371784224789806
            ],
            [
              -121.90996499789954,
              37.37177481866744
            ],
            [
              -121.90995283058446,
              37.371767234304464
            ],
            [
              -121.9099396205577,
              37.37176166103692
            ],
            [
              -121.90992569759436,
              37.371758237995856
            ],
            [
              -121.90991140926731,
              37.37175705063406
            ],
            [
              -121.90989711227031,
              37.37175812859283
            ],
            [
              -121.90985552438543,
              37.37176296870526
            ],
            [
              -121.90980926647524,
              37.371766930379756
            ],
            [
              -121.90976286762553,
              37.37176530684476
            ],
            [
              -121.90971699975508,
              37.371758121611265
            ],
            [
              -121.90967232709336,
              37.37174547873128
            ],
            [
              -121.90962949656156,
              37.37172756129098
            ],
            [
              -121.90943337572143,
              37.371641060657446
            ],
            [
              -121.90918990078974,
              37.37197601768446
            ]
          ]
        ]
      }
    },
    {
      "type": "Feature",
      "properties": {
        "OBJECTID": 9003,
        "PARCELID": "99999005",
        "INTID": 99999005,
        "APN": null,
        "LOTNUM": "7",
        "PARCELTYPE": "Tax",
        "FEATURECLASS": "Parcel",
        "PLANCRT": "MGE",
        "PLANMOD": null,
        "LASTUPDATE": "2005-10-25T12:21:45Z",
        "NOTES": null,
        "COVERED": null,
        "SHAPE_Length": 694.8246595277515,
        "SHAPE_Area": 30293.181865782142,
        "CREATIONDATE": "1900-01-01T00:00:00Z"
      },
      "geometry": {
        "type": "Polygon",
        "coordinates": [
          [
            [
              -121.88918990078975,
              37.39197601768446
            ],
            [
              -121.88951873035663,
              37.39212256095593
            ],
            [
              -121.88952919444883,
              37.39212628046593
            ],
            [
              -121.88958033436836,
              37.39214084251035
            ],
            [
              -121.88963260260492,
              37.392150608571754
            ],
            [
              -121.88968555040242,
              37.39215549480229
            ],
            [
              -121.88994835362718,
              37.392142556296626
            ],
            [
              -121.88995863390468,
              37.39214363190344
            ],
            [
              -121.88996895411246,
              37.39214305367584
            ],
            [
              -121.88997904989552,
              37.3921408364253
            ],
            [
              -121.8899886626476,
              37.3921370369473
            ],
            [
              -121.88999754613539,
              37.392131752566506
            ],
            [
              -121.8900054728059,
              37.39212511864381
            ],
            [
              -121.89001223961526,
              37.392117305108975
            ],
            [
              -121.89001767322979,
              37.39210851210785
            ],
            [
              -121.89002163446595,
              37.3920989648756
            ],
            [
              -121.89002402185557,
              37.39208890796721
            ],
            [
              -121.88999238093457,
              37.3918075234385
            ],
            [
              -121.88998502302826,
              37.39179521785714
            ],
            [
              -121.88997581875812,
              37.39178422478981
            ],
            [
              -121.88996499789954,
              37.39177481866744
            ],
            [
              -121.88995283058446,
              37.39176723430447
            ],
            [
              -121.8899396205577,
              37.391761661036924
            ],
            [
              -121.88992569759436,
              37.39175823799586
            ],
            [
              -121.88991140926731,
              37.39175705063406
            ],
            [
              -121.88989711227032,
              37.39175812859283
            ],
            [
              -121.88985552438544,
              37.391762968705265
            ],
            [
              -121.88980926647524,
              37.39176693037976
            ],
            [
              -121.88976286762554,
              37.39176530684476
            ],
            [
              -121.88971699975508,
              37.39175812161127
            ],
            [
              -121.88967232709336,
              37.39174547873128
            ],
            [
              -121.88962949656157,
              37.391727561290985
            ],
            [
              -121.88943337572144,
              37.39164106065745
            ],
            [
              -121.88918990078975,
              37.39197601768446
            ]
          ]
        ]
      }
    },
    {
      "type": "Feature",
      "properties": {
        "OBJECTID": 9004,
        "PARCELID": "99999006",
        "INTID": 99999006,
        "APN": "99999006APN",
        "LOTNUM": "7",
        "PARCELTYPE": "Tax",
        "FEATURECLASS": "Parcel",
        "PLANCRT": "MGE",
        "PLANMOD": null,
        "LASTUPDATE": "2005-10-25T12:21:45Z",
        "NOTES": null,
        "COVERED": null,
        "SHAPE_Length": 694.8246595277515,
        "SHAPE_Area": 30293.181865782142,
        "CREATIONDATE": "1900-01-01T00:00:00Z"
      },
      "geometry": {
        "type": "Polygon",
        "coordinates": [
          [
            [
              -121.90918990078974,
              37.37197601768446
            ],
            [
              -121.90951873035662,
              37.37212256095593
            ],
            [
              -121.90952919444882,
              37.37212628046593
            ],
            [
              -121.90958033436836,
              37.37214084251035
            ],
            [
              -121.90963260260492,
              37.37215060857175
            ],
            [
              -121.90968555040241,
              37.372155494802286
            ],
            [
              -121.90994835362717,
              37.37214255629662
            ],
            [
              -121.90995863390468,
              37.372143631903434
            ],
            [
              -121.90996895411246,
              37.372143053675835
            ],
            [
              -121.90997904989551,
              37.372140836425295
            ],
            [
              -121.90998866264759,
              37.372137036947294
            ],
            [
              -121.90999754613539,
              37.3721317525665
            ],
            [
              -121.91000547280589,
              37.37212511864381
            ],
            [
              -121.91001223961526,
              37.37211730510897
            ],
            [
              -121.91001767322979,
              37.37210851210785
            ],
            [
              -121.91002163446595,
              37.3720989648756
            ],
            [
              -121.91002402185556,
              37.3720889079672
            ],
            [
              -121.90999238093457,
              37.3718075234385
            ],
            [
              -121.90998502302826,
              37.371795217857134
            ],
            [
              -121.90997581875811,
              37.371784224789806
            ],
            [
              -121.90996499789954,
              37.37177481866744
            ],
            [
              -121.90995283058446,
              37.371767234304464
            ],
            [
              -121.9099396205577,
              37.37176166103692
            ],
            [
              -121.90992569759436,
              37.371758237995856
            ],
            [
              -121.90991140926731,
              37.37175705063406
            ],
            [
              -121.90989711227031,
              37.37175812859283
            ],
            [
              -121.90985552438543,
              37.37176296870526
            ],
            [
              -121.90980926647524,
              37.371766930379756
            ],
            [
              -121.90976286762553,
              37.37176530684476
            ],
            [
              -121.90971699975508,
              37.371758121611265
            ],
            [
              -121.90967232709336,
              37.37174547873128
            ],
            [
              -121.90962949656156,
              37.37172756129098
            ],
            [
              -121.90943337572143,
              37.371641060657446
            ],
            [
              -121.90918990078974,
              37.37197601768446
            ]
          ]
        ]
      }
    }
  ]
}