{"type": "FeatureCollection", "features": [{"type": "Feature", "properties": {"FACILITYID": "zA-1", "ZONING": "R-1", "ZONINGABBREV": "R-1"}, "geometry": {"type": "Polygon", "coordinates": [[[-121.92, 37.3705], [-121.92, 37.3808], [-121.908, 37.3808], [-121.908, 37.3705], [-121.92, 37.3705]]]}}, {"type": "Feature", "properties": {"FACILITYID": "zA-2", "ZONING": "R-2", "ZONINGABBREV": "R-2"}, "geometry": {"type": "Polygon", "coordinates": [[[-121.862, 37.4035], [-121.862, 37.4067], [-121.85, 37.4067], [-121.85, 37.4035], [-121.862, 37.4035]]]}}]}