{"type": "FeatureCollection", "features": [{"type": "Feature", "properties": {"FACILITYID": "zB-2", "ZONING": "R-3", "ZONINGABBREV": "R-3"}, "geometry": {"type": "Polygon", "coordinates": [[[-121.862, 37.4035], [-121.862, 37.4067], [-121.85, 37.4067], [-121.85, 37.4035], [-121.862, 37.4035]]]}}, {"type": "Feature", "properties": {"FACILITYID": "zB-3", "ZONING": "R-M", "ZONINGABBREV": "R-M"}, "geometry": {"type": "Polygon", "coordinates": [[[-121.896, 37.3628], [-121.896, 37.3677], [-121.891, 37.3677], [-121.891, 37.3628], [-121.896, 37.3628]]]}}, {"type": "Feature", "properties": {"FACILITYID": "zB-3b", "ZONING": "R-M2", "ZONINGABBREV": "R-M2"}, "geometry": {"type": "Polygon", "coordinates": [[[-121.8945, 37.3639], [-121.8945, 37.3642], [-121.8925, 37.3642], [-121.8925, 37.3639], [-121.8945, 37.3639]]]}}]}